     2.11           N: GPS NAV DATA                         RINEX VERSION / TYPE
teqc  2019Feb25                         20221121 12:26:03UTCPGM / RUN BY / DATE
OSX ker:10.11.6|Core i5|gcc 4.3 -m64|OSX ker:10.10+|=+      COMMENT
    4.6566D-09  1.4901D-08 -5.9605D-08 -5.9605D-08          ION ALPHA
    7.7824D+04  4.9152D+04 -6.5536D+04 -3.2768D+05          ION BETA
    9.313225746155D-10-4.440892098501D-15   221184     1544 DELTA-UTC: A0,A1,T,W
                                                            END OF HEADER
 9 09  8  8 23 59 44.0 7.095001637936D-05 2.046363078989D-12 0.000000000000D+00
    2.000000000000D+00 6.790625000000D+01 4.288392914492D-09 2.023111031838D-01
    3.401190042496D-06 2.076105889864D-02 5.891546607018D-06 5.153627483368D+03
    6.047840000000D+05-3.650784492493D-07 1.456261368983D+00-4.097819328308D-08
    9.769326966424D-01 2.780312500000D+02 1.502479001927D+00-8.417493479533D-09
    3.793015137162D-10 1.000000000000D+00 1.543000000000D+03 0.000000000000D+00
    2.000000000000D+00 0.000000000000D+00-5.587935447693D-09 2.000000000000D+00
    6.030180000000D+05 4.000000000000D+00
17 09  8  8 23 59 44.0 7.599312812090D-05 2.728484105319D-12 0.000000000000D+00
    8.000000000000D+00-3.284375000000D+01 4.449828210349D-09-2.397935377302D+00
   -1.652166247368D-06 4.607636365108D-03 1.168437302113D-05 5.153724328995D+03
    6.047840000000D+05 4.842877388000D-08-2.681286827296D+00-1.303851604462D-07
    9.601980227075D-01 1.528750000000D+02-2.636201149159D+00-7.861398887390D-09
    5.821671067396D-11 1.000000000000D+00 1.543000000000D+03 0.000000000000D+00
    2.000000000000D+00 0.000000000000D+00-1.024454832077D-08 8.000000000000D+00
    5.994780000000D+05 4.000000000000D+00
